OBJECTID,Sample Site,Sample Station (SS) - Location Description,X - Coordinate,Y - Coordinate,LONGITUDE,LATITUDE,City or Placename,ZIP Code
1,1S03,"SS - Shaft 3 of City Tunnel No.1 - E/S Goulden Ave, S/O Sedgwick Ave, OPP JPR GH7",1024950,264277,-73.85279347,40.89195927,Bronx,10466
2,1S04,"SS - Shaft 4 of City Tunnel No.1 - IFO 2780 Reservoir Ave, E/S Reservoir Ave, 1st SS N/O Strong St (@ intersection of Reservoir Ave & Goulden)",1012568,256577,-73.89761003,40.87087361,Bronx,10468
3,1S03A,"SS - Shaft 3A of City Tunnel No.2 - S/S E 233rd St, W/O Bronxwood Ave IFO 862 E 233rd St.",1024721,264392,-73.85362104,40.89227596,Bronx,10466
4,1S07,"SS - Shaft 7 of City Tunnel No.1 - NE/S W 167th St, 1st SE/O Sedgwick Ave IFO 1260 Sedgwick Ave",1004013,245233,-73.92857595,40.83976102,Bronx,10452
5,1S03B,"SS - Shaft 3B of City Tunnel No.3 - W/S Jerome Ave, S/O access road to Mosholu Golf Course (SW corner of entrance to park)",1014949,260688,-73.88898217,40.88214906,Bronx,10468
6,1SCL1,"Jerome Park Reservoir (W205th St & Goulden Ave, Bx) - Croton Distribution Chamber - low pressure service tunnel, Tap in Gatehouse #5, treated water",1013921,259223,-73.89270625,40.87813161,Bronx,10468
7,1SCH3,"Jerome Park Reservoir (W205th St & Goulden Ave, Bx) - Croton Distribution Chamber - high pressure service tunnel, Tap #3 in Gatehouse #5, treated water",1013921,259223,-73.89270625,40.87813161,Bronx,10468
8,1SCH4,"Jerome Park Reservoir (W205th St & Goulden Ave, Bx) - Croton Distribution Chamber - high pressure service tunnel, Tap in Gatehouse #5, treated water",1013921,259223,-73.89270625,40.87813161,Bronx,10468
9,10150,"SS - W/S Zerega Ave, 1st SS S/O Hermany Ave, 12"" OPP NYC Sanitation",1027625,239952,-73.84327578,40.82518181,Bronx,10473
10,10250,"SS - W/S Nelson Ave, 1st SS N/O W 168th St (OPP school-1248 Nelson Ave), 12""",1005082,244866,-73.92471369,40.83875126,Bronx,10452
11,10550,"SS - W/S Stadium Ave, 1St SS N/O Randolph Pl, 12""",1033944,246040,-73.82039868,40.84185829,Bronx,10465
12,10750,"SS - N/S Bartow Ave, 2nd SS W/O Co-op City Blvd, 20""",1031623,256138,-73.82871573,40.86958699,Bronx,10475
13,10850,"SS - E/S Riverdale Ave, 1st SS S/O W 260th St (IFO church), OPP 5977 Riverdale Ave, 12""",1010873,270095,-73.90368493,40.90798151,Bronx,10471
14,11050,"SS - IFO 1675 W/S University Ave, 2nd SS S/O W 176th St, IFO 1669 University Ave, 12""",1006824,248454,-73.91840607,40.84859498,Bronx,10453
15,11150,"SS - IFO 71E N/S E 183rd St, 1st SS W/O Morris Ave, 12""",1011330,251963,-73.90210493,40.85821347,Bronx,10468
16,11250,"SS - IFO 925 N/S E Tremont Ave, 1st SS E/O Daly Ave, 20""",1016434,245999,-73.88368246,40.84182694,Bronx,10460
17,11350,"SS - W/S Metropolitan Ave, 2nd SS N/O Parkchester Rd (IFO Macy's), 20""",1022677,244011,-73.8611308,40.8363455,Bronx,10462
18,11450,"SS - IFO 920 S/S Co - op City Blvd, 2nd SS W/O Dreiser Loop, 20""",1031142,259322,-73.83043257,40.87832864,Bronx,10475
19,11550,"SS - IFO 1058 S/S E Gun Hill Rd, 1st SS E/O Hone Ave, 12""",1023792,257836,-73.85701982,40.87428603,Bronx,10469
20,11750,"SS - IFO 250 E/S City Island Ave, BTW Carroll & Schofield Sts, 20""",1043521,247419,-73.78577395,40.84558414,Bronx,10464
21,11900,"SS - S/S E 177th St, BTW Walton & Morris Aves, 36""",1009464,248889,-73.90886214,40.84978178,Bronx,10453
22,12000,"SS - OPP 1540 W/S Jerome Ave, 1st SS S/O Goble Pl, 48""",1007590,246530,-73.91564406,40.84331218,Bronx,10452
23,12150,"SS - IFO 963 N/S E 233rd St, 2nd SS W/O Gunther Ave, 12""",1025842,263931,-73.84956938,40.89100545,Bronx,10466
24,12250,"SS - OPP 1134 N/S E 225th St, 2nd SS W/O Schieffelin Ave, 12""",1026480,261194,-73.84727911,40.88349023,Bronx,10466
25,12550,"SS - IFO 352 S/S E Gun Hill Rd, 1st SS W/O Decatur Ave, 20""",1019445,259431,-73.87272976,40.87868221,Bronx,10467
26,13050,"SS - IFO 2431 W/S Eastchester Rd, 2nd SS S/O Mace Ave, 12""",1027551,253340,-73.84345671,40.86192825,Bronx,10469
27,13150,"SS - IFO 2805 W/S Grand Concourse, 2nd SS S/O E 197th St, 20""",1014019,255932,-73.89236649,40.86909851,Bronx,10468
28,13350,"SS - N/S E Fordham Rd, 1st SS E/O Washington Ave, 20""",1015047,252761,-73.88866421,40.86039155,Bronx,10458
29,13550,"SS - IFO 2015 W/S University Ave, 1st SS S/O W 180th St, 12""",1008924,250942,-73.91080645,40.85541818,Bronx,10453
30,13600,"SS - E/S Southern Blvd, BTW E 180th & E 181st Sts, 36""",1016282,247551,-73.8842244,40.84608727,Bronx,10460
31,13700,"SS - W/S Southern Blvd, BTW Garden & E 182nd Sts, 48""",1016626,248602,-73.88297598,40.8489707,Bronx,10460
32,13850,"SS - IFO 1778 E/S Jerome Ave, 1st SS S/O E 176th St, 12""",1008681,248387,-73.91169418,40.84840614,Bronx,10453
33,13900,"SS - S/S E 180th St, BTW Webster & Valentine Aves, IFO School 48""",1012181,249738,-73.89903782,40.85210386,Bronx,10457
34,14000,"SS - IFO 960 S/S E 156th St, BTW Kelly & Beck Sts, 48""",1012057,236583,-73.89954057,40.81599759,Bronx,10455
35,14100,"SS -OPP 1540 W/S Jerome Ave, 2nd SS S/O Goble Pl, 48""",1007582,246514,-73.91567303,40.84326828,Bronx,10452
36,14200,"SS - E/S Southern Blvd, BTW E 172nd & E 173rd Sts, OPP 1571 Southern Blvd, 36""",1015030,243659,-73.88876745,40.83540933,Bronx,10460
37,14350,"SS - OPP 3748 W/S Third Ave, 1st SS N/O St Paul's Pl, 20""",1011164,243988,-73.90273704,40.83632496,Bronx,10456
38,14450,"SS - OPP 958 W/S Gerard Ave, 2nd SS S/O E 164th St, 12""",1005321,241483,-73.92386058,40.82946534,Bronx,10452
39,14650,"SS - E/S Concourse Village East, 1st SS N/O E 158th St, 12""",1006655,239592,-73.91904653,40.8242718,Bronx,10451
40,14850,"SS - W/S Jackson Ave, 1st SS S/O St Mary's St, 20""",1008919,233877,-73.91088728,40.8085797,Bronx,10454
41,14950,"SS - N/S E 135th St, 2nd SS W/O Willis Ave, 12""",1004935,233559,-73.9252798,40.80771711,Bronx,10454
42,15050,"SS - W/S Trinity Ave, 2nd SS S/O E 163rd St (IFO school), 16""",1010196,238892,-73.90625495,40.82234081,Bronx,10456
43,15150,"SS - IFO 1420 E/S Grand Concourse, 1st SS S/O E 171st St, 12""",1008300,245099,-73.91308309,40.8393826,Bronx,10456
44,15250,"SS - IFO 4315 W/S Third Ave, 1st SS N/O E 179th St, 20""",1013358,248845,-73.8947872,40.84964904,Bronx,10457
45,15300,"SS - W/S Bailey Ave, BTW W 231st & W 233rd Sts, 48""",1011253,259260,-73.90235389,40.87824173,Bronx,10463
46,15450,"SS - IFO 79E N/S East Gun Hill Rd, 1st SS W/O Rochambeau Ave, IFO 83 E. Gun Hill Rd, 20""",1017550,260554,-73.87957677,40.88177184,Bronx,10467
47,15550,"SS - IFO 2499 W/S Grand Ave, 1st SS S/O W 190th St, OPP 24-84 Grand Ave 12""",1011297,254171,-73.90221532,40.86427386,Bronx,10468
48,16150,"SS - W/S Bronxdale Ave, 2nd SS S/O Rhinelander Ave, 12""",1022864,248301,-73.86043031,40.84811947,Bronx,10462
49,16250,"SS - IFO 251 N/S E 204th St, 1st SS E/O Valentine Ave, 12""",1016202,257822,-73.88446458,40.87427834,Bronx,10458
50,16450,"SS - IFO 3902 E/S White Plains Rd, 1st SS N/O E 222nd St, 20""",1022580,262068,-73.86137808,40.88590688,Bronx,10467
51,16650,"SS - IFO 1541 N/S Westchester Ave, BTW Boynton & Ward Aves,  20""",1018029,241253,-73.87794181,40.82879459,Bronx,10472
52,16950,"SS - W/S Westchester Ave, 1st SS N/O St Peters Ave, 20""",1027285,244910,-73.84447247,40.83879174,Bronx,10461
53,17050,"SS - IFO 4740 E/S White Plains Rd, 1st SS N/O St Ouen St, 20""",1025828,268839,-73.84958953,40.90447639,Bronx,10470
54,17250,"SS - N/S Allerton Ave, 1st SS E/O Throop Ave, 12""",1025509,254616,-73.85083115,40.86544026,Bronx,10469
55,17350,"SS - N/S W 232nd St, 1st SS E/O Arlington Ave, 12""",1008514,261350,-73.91225086,40.88398608,Bronx,10463
56,17450,"SS - IFO 2548 E/S White Plains Rd, 2nd SS N/O Mace Ave, 20""",1020965,254176,-73.86726203,40.86425267,Bronx,10467
57,17550,"SS - IFO 309 N/S E 149th St, 2nd SS W/O Courtlandt Ave, 12""",1006168,236943,-73.9208148,40.81700227,Bronx,10451
58,17650,"SS - IFO 1871 N/S Lafayette Ave, 1st SS W/O Underhill Ave, 12""",1022842,238715,-73.86056498,40.82180879,Bronx,10473
59,17750,"SS - IFO 835 W/S Hunts Point Ave, 1st SS S/O Gilbert Pl, 12""",1015077,237136,-73.88862757,40.8175054,Bronx,10474
60,17950,"SS - W/S Kingsbridge Ave, 1st SS N/O W 232nd St, 12""",1010441,260348,-73.90528592,40.8812304,Bronx,10463
61,18000,"SS -S/S of Westbound Bronx & Pelham Pkwy, on Center Median W/O Eastchester Rd, 36""",1026261,251872,-73.84812955,40.85790528,Bronx,10469
62,18100,"SS - IFO 2208 S/S Starling Ave, BTW Castle Hill & Glebe Aves, 48""",1025309,244013,-73.85161917,40.83633915,Bronx,10462
63,18200,"SS - IFO 653 E/S River Ave, BTW E 150th & E 151st Sts, 36""",1003933,238872,-73.92888373,40.82230209,Bronx,10451
64,18300,"SS - E/S Southern Blvd, BTW St Mary's & E 142nd Sts, 36""",1009738,233525,-73.90793012,40.80761123,Bronx,10454
65,18450,"SS - W/S West Farms Rd, 2nd SS S/O E 167th St, OPP 1096 West Farms Rd, 12""",1014529,240306,-73.89059309,40.82620804,Bronx,10459
66,18500,"SS - S/S E 164th St, BTW River & Gerard Aves, 48""",1005303,241864,-73.92392443,40.83051111,Bronx,10452
67,18650,"SS - N/S Dewey Ave, BTW Quincy & Swinton Aves, 12""",1033436,238573,-73.82228941,40.82136641,Bronx,10465
68,18750,"SS - IFO 4977 W/S Henry Hudson Pkwy, 2nd SS S/O W 252nd St, 20""",1009639,266491,-73.90816289,40.89809333,Bronx,10471
69,18800,"SS - IFO 750 S/S E 169th St, BTW Boston Rd & Tinton Ave, 36""",1011911,242028,-73.90004558,40.83094302,Bronx,10456
70,18900,"SS - IFO 3453 W/S Jerome Ave, btw W Gun Hill Rd & E 208th St, 36 inch",1016746,260551,-73.88248429,40.88176661,Bronx,10467
71,19000,"SS - IFO 758 S/S E 233rd St, BTW Barnes & Byron Aves, 1st E/O Byron Ave 48""",1024284,264511,-73.8552009,40.89260457,Bronx,10466
72,20050,"SS - N/S Ave U, 1st SS W/O E 65th St, 12""",1008686,163991,-73.91198262,40.61676011,Brooklyn,11234
73,20150,"SS - E/S W 23rd St, 1st SS N/O Mermaid Ave, 12""",987006,149279,-73.99007901,40.57641191,Brooklyn,11224
74,20300,"SS - N/S Luquer St, BTW Columbia &  Hicks Sts, 20""",983104,186572,-74.00413168,40.67877369,Brooklyn,11231
75,20350,"SS - OPP 74 S/S Sullivan St, 2nd SS E/O Van Brunt St, 20""",981016,186055,-74.0116593,40.67735412,Brooklyn,11231
76,20650,"SS - W/S 21st Ave, 2nd SS S/O Cropsey Ave, 12""",983827,157189,-74.0015232,40.5981237,Brooklyn,11214
77,20750,"SS - S/S Park Ave, BTW Emerson Pl & Steuben St, 16""",994544,192845,-73.96287742,40.69598572,Brooklyn,11205
78,20850,"SS - E/S Union Ave, 1st SS N/O Frost St, IFO 568 Union Ave, 20""",997523,200731,-73.9521189,40.71762696,Brooklyn,11211
79,20900,"SS - S/S Sands St. BTW Gold St. and Manhattan Brg. Ent. Ramp, OPP 177 Sands St, 48""",988841,194197,-73.98344285,40.69970144,Brooklyn,11201
80,20950,"SS - E/S Clinton St, 2nd SS N/O Pierrepont St, IFO 33 Clinton St, 20""",986528,192665,-73.99178506,40.69549736,Brooklyn,11201
81,21000,"SS - N/S Pacific St, BTW Buffalo & Rochester Aves, 48""",1004547,185738,-73.92682567,40.67646135,Brooklyn,11233
82,21050,"SS - N/S Bergen St, 2nd SS E/O Buffalo Ave, OPP 1770 Bergen St, 12""",1005507,185097,-73.92336672,40.6746997,Brooklyn,11233
83,21100,"SS - S/S Willoughby Ave, BTW Clinton & Vanderbilt Aves, 66""",992926,191199,-73.96871442,40.69146957,Brooklyn,11205
84,21150,"SS - IFO 413 E/S Classon Ave, BTW Greene & Lexington Aves, 20""",995472,189555,-73.95953631,40.68695431,Brooklyn,11238
85,21250,"SS - IFO 747 N/S Lafayette Ave, 2nd SS W/O Throop Ave, 12""",999981,190980,-73.94327468,40.69085874,Brooklyn,11221
86,21350,"SS - IFO 1135 W/S Decatur St, 2nd SS N/O Evergreen Ave, 12""",1009575,189833,-73.90868345,40.68768823,Brooklyn,11207
87,21400,"SS - IFO 312 E/S Jefferson St, BTW Irving & Knickerbocker Aves, 60""",1004792,195987,-73.92591115,40.70459192,Brooklyn,11237
88,21450,"SS - IFO 53 E/S Knickerbocker Ave, 1st SS N/O Grattan St, 20""",1003549,196536,-73.9303927,40.7061016,Brooklyn,11237
89,21550,"SS - E/S Eldert La, 2nd SS N/O Stanley Ave, IFO 943 Eldert Ln, 12""",1022514,182222,-73.86207145,40.6667513,Brooklyn,11208
90,21650,"SS - IFO 307 E/S 7th Ave, 1st SS N/O 8th St, 12""",989547,182489,-73.98090591,40.66756526,Brooklyn,11215
91,21750,"SS - E/S 7th Ave, 1st SS N/O 52nd St, IFO 5115 7th Ave, 12""",982360,172983,-74.00681022,40.64147475,Brooklyn,11220
92,21850,"SS - IFO 37 E/S 7th Ave, 1st SS S/O St Johns Pl, 12""",991434,185676,-73.97410045,40.67631153,Brooklyn,11217
93,21900,"SS - N/S Eastern Pkwy (S/S of svc. Rd), BTW New York & Brooklyn Aves, IFO 645 Eastern Pkwy.  Median BTW Svc & Main 48""",999127,183310,-73.9463711,40.66980781,Brooklyn,11213
94,21950,"SS - IFO 992 W/S Nostrand Ave, 2nd SS S/O Sullivan Pl, 12""",997809,181345,-73.9511262,40.66441644,Brooklyn,11225
95,22050,"SS - IFO 130 E/S Humboldt St, 2nd SS S/O Boerum St, 20""",1000578,196313,-73.94110899,40.70549549,Brooklyn,11206
96,22250,"SS - IFO 9002 W/S Ft Hamilton Pkwy, 1st SS S/O 90th St, 12""",976873,164479,-74.02657217,40.6181302,Brooklyn,11209
97,22300,"SS-E/S 8th Ave BTW 8th & 9th Sts, 72""",990149,181990,-73.97873632,40.66619524,Brooklyn,11215
98,22350,"SS - E/S 5th Ave, BTW 49th St & 50th Sts, IFO 4915 5th Ave, 12""",981481,174383,-74.00997808,40.64531722,Brooklyn,11220
99,22400,"SS - N/S 65 St, BTW 16th & 17th Aves, IFO 1641 65th St, 60""",985983,165686,-73.99375737,40.62144606,Brooklyn,11204
100,22550,"SS - E/S Stillwell Ave, 1st SS N/O Ave S, IFO P.S. 97 OPP 870-86 Stillwell Ave, 20""",988160,158172,-73.98591972,40.60082098,Brooklyn,11223
101,22600,"SS - E/S Ft Hamilton Pkwy, BTW 49th & 50th Sts, OPP 4918 Ft. Hamilton Pkwy, 72""",984776,171711,-73.99810477,40.63798357,Brooklyn,11219
102,22650,"SS - IFO 5601 E/S Ft Hamilton Pkwy, 1st SS S/O E 56th St, IFO 5517 Ft. Hamilton Pkwy, 20""",983494,170583,-74.00272382,40.63488743,Brooklyn,11219
103,22700,"SS - N/S Church Ave, BTW Ocean Pkwy & E 5th St, 48""",991096,174139,-73.97533071,40.64464528,Brooklyn,11218
104,22750,"SS - W/S Dahill Rd, 2nd SS S/O 15th Ave, OPP 339 Dahill Rd, 12""",989834,172129,-73.97987994,40.63912915,Brooklyn,11218
105,22850,"SS - N/S Beverly Rd, 1st SS E/O E 48th St, IFO 4805 Bevery Rd 16""",1003264,174746,-73.93148211,40.6462936,Brooklyn,11203
106,22900,"SS -  W/S Washington Park, BTW Willoughby & Myrtle Aves, OPP 175 Washington Pk, 66""",991547,191369,-73.9736869,40.69193742,Brooklyn,11205
107,22950,"SS - N/S Myrtle Ave, 2nd SS E/O N Portland Ave, 20""",991169,191900,-73.97504943,40.6933952,Brooklyn,11205
108,23000,"SS - E/S Ocean Pkwy (E/S of Svc Rd), BTW Ave H & Ave I, 60""",992358,167967,-73.97079056,40.62770339,Brooklyn,11230
109,23150,"SS - E/S Ocean Pkwy, 2nd SS N/O Ave M, IFO 1257 Ocean Pkwy, 12""",992883,164317,-73.96890389,40.61768441,Brooklyn,11230
110,23200,"SS - N/S Caton Ave, BTW E 18th St & St Pauls Pl, 48""",994430,176630,-73.96331302,40.65147933,Brooklyn,11226
111,23250,"SS - E/S Ocean Ave, 2nd SS S/O Albemarle Rd, 20""",995298,174737,-73.96018799,40.64628241,Brooklyn,11226
112,23350,"SS - W/S Ocean Ave, 2nd SS S/O Ditmas Ave, OPP 985 Ocean Ave, 12""",995651,171892,-73.95892075,40.63847305,Brooklyn,11226
113,23450,"SS - N/S Jefferson Ave, 2nd SS W/O Lewis Ave, OPP 518 Jefferson Ave,  20""",1001705,188791,-73.93706368,40.6848472,Brooklyn,11221
114,23550,"SS - E/S Nostrand Ave, 2nd SS N/O Ave K, 20""",999091,167177,-73.94653637,40.62552628,Brooklyn,11210
115,23650,"SS - E/S Nostrand Ave, 2nd SS N/O Ave W, 20""",1000612,156721,-73.94108241,40.59682404,Brooklyn,11229
116,23750,"SS - E/S Ocean Ave, 2nd SS N/O Ave R, IFO 2233 Ocean Ave,  20""",997371,160498,-73.95274552,40.60719653,Brooklyn,11229
117,23850,"SS - W/S Ocean Pkwy, 2nd SS S/O Ave V,  IFO 2252 Ocean Pkwy (@ Gravesend Neck, 1st S/O), 20""",993928,155802,-73.965152,40.59431139,Brooklyn,11223
118,23900,"SS - S/S Atlantic Ave, BTW Schenck Ave & Barbey St, 48""",1015080,185857,-73.8888518,40.67675756,Brooklyn,11207
119,23950,"SS - S/S Liberty Ave, 1st SS E/O Sheridan Ave,  IFO 1146 Liberty Ave, 12""",1021191,186564,-73.86681661,40.67867472,Brooklyn,11208
120,24050,"SS - IFO 2940 W/S Ocean Ave, 2nd SS S/O Ave Y, 16""",998224,154096,-73.94968674,40.58962303,Brooklyn,11235
121,24150,"SS - IFO 2220 S/S Atlantic Ave, 2nd SS E/O Hopkinson Ave (Thomas S. Boyland St), 20""",1008575,185680,-73.91230423,40.676292,Brooklyn,11233
122,24250,"SS - W/S 20th Ave, 1st SS S/O 58th St, 12""",989290,165338,-73.98184513,40.62048961,Brooklyn,11204
123,24300,"SS - E/S Ocean Pkwy, BTW Ave Z & Belt Pkwy, (median BTW Main & Svc Rd of Ocean Pkwy), 30""",993640,152726,-73.96619329,40.5858687,Brooklyn,11235
124,24350,"SS - W/S Brighton 11th St, 2nd SS S/O Cass Pl, IFO 82 Brighton 11th St, 12""",996121,150850,-73.95726427,40.58071647,Brooklyn,11235
125,24450,"SS - E/S Brooklyn Ave, 2nd SS S/O Linden Blvd, IFO 887 Brooklyn Ave, 20""",999844,176855,-73.94380137,40.65208903,Brooklyn,11203
126,24550,"SS - OPP 4106 N/S Glenwood Rd, 1st SS W/O E 42nd St, 12""",1001869,170545,-73.93652003,40.63476564,Brooklyn,11210
127,24650,"SS - N/S Linden Blvd, 1st SS E/O Bristol St, 12""",1009614,177814,-73.90858805,40.65469868,Brooklyn,11212
128,24700,"SS - S/S Ave P, BTW Coney Island Ave & E 12th St, (E/O Coney Island Ave), 60""",994790,161491,-73.96203928,40.60992556,Brooklyn,11230
129,24750,"SS - IFO 1660 W/S E 13th St, 2nd SS N/O Quentin Rd, 20""",995293,161067,-73.96022838,40.60876115,Brooklyn,11229
130,24850,"SS - N/S New Lots Ave, 1st SS W/O Shepherd Ave, 16""",1017701,182613,-73.8794187,40.667844,Brooklyn,11208
131,24950,"SS - IFO 1169 N/S East New York Ave, 2nd SS W/O Ralph Ave, 12""",1005399,182198,-73.92376517,40.66674286,Brooklyn,11233
132,25050,"SS - W/S Pennsylvania Ave, 1st SS N/O Hegeman Ave, IFO 718 Penn. Ave, 20""",1014257,179774,-73.89184595,40.66006393,Brooklyn,11207
133,25100,"SS - IFO 630 W/S Howard Ave, BTW Sutter & East New York Aves, 60""",1006510,182108,-73.91976069,40.6664931,Brooklyn,11212
134,25150,"SS - E/O Mother Gaston Blvd, 2nd SS N/O Livonia Ave, 12""",1010559,181082,-73.90516952,40.66366586,Brooklyn,11212
135,25250,"SS - S/S Foster Ave, 2nd SS E/O E 101st St, 20""",1011381,176277,-73.90222596,40.65047471,Brooklyn,11236
136,25350,"SS - W/S Remsen Ave, 1st SS N/O Ave M, 20""",1012292,170203,-73.89896817,40.63380006,Brooklyn,11236
137,25400,"SS - S/S Pacific St, BTW Franklin & Classon Aves, 48""",996612,186417,-73.95543152,40.67833969,Brooklyn,11238
138,25450,"SS - IFO 1030 S/S Park Pl, 2nd SS E/O Brooklyn Ave, 12""",999921,184474,-73.94350616,40.67300136,Brooklyn,11213
139,25550,"SS - E/S Bedford Ave, 2nd SS S/O Montgomery St, 20""",996201,181648,-73.95692174,40.66525042,Brooklyn,11225
140,25900,"SS - S/S Kings Highway, BTW E 35th & E 36th Sts, 60""",1000853,165505,-73.940193,40.62093387,Brooklyn,11234
141,25950,"SS - E/S Flatbush Ave, 2nd SS N/O Ave R, IFO 2185 Flatbush Ave, 16""",1003601,164002,-73.93029852,40.61680287,Brooklyn,11234
142,26300,"SS - W/S Vermont St, BTW Jamaica & Sunnyside Aves, 48""",1013103,186926,-73.89597469,40.67969839,Brooklyn,11207
143,26500,"SS - IFO 336 W/S 6th Ave, BTW 3rd and 4th St, 66""",989404,183806,-73.98142038,40.67118022,Brooklyn,11215
144,26550,"SS - E/S 4th Ave, 1st SS S/O Sackett St, 20""",989092,186247,-73.98254335,40.67788039,Brooklyn,11217
145,26700,"SS - IFO 426 S/S Sterling Pl, BTW Underhill & Washington Aves, 72""",994175,185107,-73.96421952,40.67474711,Brooklyn,11238
146,26750,"SS - IFO 1110 N/S President St, 2nd SS E/O Bedford Ave, 12""",997012,182764,-73.95399632,40.66831246,Brooklyn,11225
147,26850,"SS - W/S W 37th St, 2nd SS n/O Neptune Ave, 12""",983249,150034,-74.00360349,40.57848461,Brooklyn,11224
148,26950,"SS - IFO 1058 N/S Metropolitan Ave, 2nd SS W/O Vandervoort Ave, 20""",1002385,199590,-73.93458277,40.71448656,Brooklyn,11211
149,27000,"SS - IFO 383 W/S Hooper St, BTW S 1st & S 2nd Sts, 72""",996850,197261,-73.95455318,40.70810362,Brooklyn,11211
150,27350,"SS - OPP 1035 S/S Clarkson Ave, 1st SS W/O E 93rd St, 12""",1005520,179355,-73.92333797,40.65893916,Brooklyn,11212
151,27450,"SS - IFO 1915 E/S Ocean Ave, 2nd SS N/O Ave O, 20""",996950,163407,-73.95425625,40.61518175,Brooklyn,11230
152,27550,"SS - N/S Farragut Rd, BTW E 81st & E 82nd Sts, 12""",1007600,172230,-73.91586584,40.63937735,Brooklyn,11236
153,27600,"SS - E/S Palmetto St, BTW Bushwick & Evergreen Aves, IFO 80 Palmetto St, 60""",1006714,191168,-73.91899515,40.69136022,Brooklyn,11221
154,27650,"SS - IFO 59 E/S Patchen Ave, 1st SS S/O Lexington Ave, 20""",1004372,190749,-73.92744161,40.6902158,Brooklyn,11221
155,27750,"SS - IFO 165 N/S S 1st St, 2nd SS W/O Driggs Ave, 20""",995052,199303,-73.96103509,40.71371081,Brooklyn,11211
156,27850,"SS - IFO 136 S/S Kent St, 2nd SS E/O Franklin St, 20""",996572,205514,-73.95554079,40.73075651,Brooklyn,11222
157,28050,"SS - IFO 579 N/S Macon St, 2nd SS W/O Patchen Ave, 20""",1004177,188340,-73.92815189,40.68360409,Brooklyn,11233
158,28450,"SS - IFO 2323 NE/S 60th St, 2nd SS W/O McDonald Ave, IFO 2323 60th St, 16""",991065,163335,-73.97545333,40.6149906,Brooklyn,11204
159,28550,"SS - E/S W 5th St, 2nd SS S/O Neptune Ave, IFO 2925 W 5th St, 12""",991951,149887,-73.97227741,40.57807783,Brooklyn,11224
160,28950,"SS - W/S 14th Ave, 1st SS N/O 52nd St, 20""",986578,169591,-73.99161271,40.63216433,Brooklyn,11219
161,29050,"SS - N/S 81st St, 1st SS E/O 19th Ave, 12""",985048,161009,-73.99712599,40.6086088,Brooklyn,11214
162,29300,"SS - E/S 5th Ave, BTW 24th & 25th Sts, 66""",985555,179528,-73.99529644,40.65943946,Brooklyn,11232
163,29350,"SS - W/S 4th Ave, BTW 28th & 29th Sts, 20""",984246,179280,-74.00001442,40.65875885,Brooklyn,11232
164,29450,"SS - IFO 4011 E/S 7th Ave, 1st SS S/O 40th St, 12""",984191,175300,-74.00021261,40.64783462,Brooklyn,11232
165,29500,"SS - W/S Ridge Blvd, BTW Bay Ridge Ave & 68th St, 48""",976339,171400,-74.02850376,40.63712642,Brooklyn,11220
166,29550,"SS - N/S Bay Ridge Ave, 2nd SS W/O 4th Ave, IFO 335 Bay Ridge Ave 12""",977311,170753,-74.02500093,40.63535136,Brooklyn,11220
167,29850,"SS - IFO 1425 E/S Pennsylvania Ave, 2nd SS S/O Schroeders Ave, 20""",1017420,174983,-73.88046915,40.6469024,Brooklyn,11239
168,3ISL3,"SS - Wards Island, DEP Water Pollution Control Plant, BTW 1st & 2nd security gates, OPP traffic circle",1005336,225499,-73.92385658,40.78559366,New York,10035
169,3ISL4,"SS - Randalls Island, OPP exit ramp to Qns, next to golf driving range, S/O of Police Launch Repair Shop",1004896,230380,-73.92543046,40.79899172,New York,10035
170,30050,"SS - IFO 8 E/S Centre Market Place, 2nd SS N/O Grand St, 12""",984875,201591,-73.99774529,40.71999739,New York,10013
171,30150,"SS - E/S 1st Ave, 1st SS S/O E 3rd St,  OPP 49 1st Ave, 12""",987725,203176,-73.987463,40.72434717,New York,10003
172,30250,"SS - OPP 280 N/S Madison St, 2nd SS W/O Montgomery St, 12""",988016,199056,-73.98641544,40.71303864,New York,10002
173,30350,"SS - IFO 90 E/S Pitt St, 2nd SS N/O Rivington St, 12""",989223,201145,-73.98206006,40.71877185,New York,10002
174,30450,"SS - N/S Water St, 2nd SS E/O Catherine Slip, 12""",985554,197941,-73.99529648,40.70997894,New York,10002
175,30550,"SS - E/S Water St, 1st SS S/O Maiden La (IFO Wall St Plaza), 20""",982568,196479,-74.00606659,40.70596603,New York,10005
176,30750,"SS - IFO 269 N/S W 140th St, 2nd SS E/O Frederick Douglass Blvd (8th Ave), 12""",999891,237824,-73.94349024,40.81943371,New York,10030
177,30850,"SS - IFO 230 S/S E 125th St, 2nd SS E/O 3rd Ave, 12""",1002385,231847,-73.93449576,40.80302374,New York,10035
178,30950,"SS - W/S South End Ave, 2nd SS N/O West Thames St, 20""",979476,197553,-74.0172195,40.70891278,New York,10280
179,31050,"SS - IFO 370 W/S Greenwich St, 1st SS N/O Franklin St, 20""",981361,201439,-74.0104221,40.71957974,New York,10013
180,31200,"SS - W/S Amsterdam Ave, BTW W 177th & W 178th Sts, IFO 2374 Amsterdam Ave, 48""",1002902,247504,-73.93258481,40.84599667,New York,10033
181,31350,"SS - E/S Bedford St, 1st SS S/O Grove St, IFO 90 Bedford St, 12""",982777,206084,-74.00531488,40.73232948,New York,10014
182,31450,"SS - IFO 22 N/S Howard St, BTW Crosby & Lafayette Sts, 12""",984155,201407,-74.00034271,40.71949238,New York,10013
183,31550,"SS - OPP 329 S/S W 18th St, 2nd SS E/O 9th Ave, 12""",983716,209861,-74.00192708,40.74269652,New York,10011
184,31650,"SS - N/S E 77th St, 2nd SS W/O 3rd Ave, 12""",995588,221044,-73.95906499,40.77338374,New York,10075
185,31750,"SS - IFO 427 N/S W 26th St, 2nd SS W/O 9th Ave, 12""",983942,212144,-74.0011116,40.74896279,New York,10001
186,31850,"SS - IFO 82 S/S Warren St, 2nd SS E/O Greenwich St, 12""",981300,199881,-74.01064148,40.71530338,New York,10007
187,31950,"SS - IFO 313 N/S W 47th St, 2nd SS W/O 8th Ave, 12""",987340,216552,-73.98884585,40.7610611,New York,10036
188,32050,"SS - IFO 49 N/S W 96th St, 2nd SS W/O Central Park West, 12""",993434,228077,-73.96683223,40.79268995,New York,10025
189,32150,"SS - W/S St Nicholas Ave, 1st SS N/O 174th St, IFO 1281 St. Nicholas Ave, 12""",1001666,247137,-73.93705312,40.84499189,New York,10033
190,32200,"SS - S/S W 150th St, BTW Convent & St Nicholas Aves, IFO 408 W 150th St 30""",999894,240792,-73.94347248,40.82758002,New York,10031
191,32350,"SS - IFO 116 E/S Ave C, 2nd SS N/O E 7th St, 12""",990189,203193,-73.97857344,40.72439252,New York,10009
192,32400,"SS - E/S 1st Ave, BTW E 29th & E 30th Sts, 48""",991111,209292,-73.97524086,40.74113211,New York,10016
193,32550,"SS - IFO 271 W/S Ave C, 1st SS S/O E 16th St, 20""",991177,205146,-73.97500695,40.72975231,New York,10009
194,32650,"SS - IFO 14 S/S W 18th St, 2nd SS W/O 5th Ave, 12""",986146,208516,-73.99315816,40.73900464,New York,10011
195,32750,"SS - S/S E 57th St, 2nd SS E/O 3rd Ave, 12""",993663,215984,-73.96602214,40.75949761,New York,10022
196,32850,"SS - IFO 138 S/S E 37th St, 2nd SS E/O Lexington Ave, 12""",990374,211810,-73.97789816,40.74804393,New York,10016
197,32950,"SS - W/S 1st Ave, 1st SS S/O E 25th St, IFO 421 1st Ave, 12""",990365,208138,-73.97793398,40.73796521,New York,10010
198,33050,"SS - N/S W 62nd St, 2nd SS E/O Amsterdam Ave, 12""",988401,220494,-73.98501346,40.77188043,New York,10023
199,33100,"SS - E/S 10th Ave/Harlem River Dr. (SS S/O Dyckman St on bike path in park), 30""",1005641,252089,-73.92267044,40.85857492,New York,10040
200,33150,"SS - IFO 200 W/S Nagle Ave, 2nd SS N/O Dyckman St, 12""",1005456,253444,-73.92333493,40.86229443,New York,10034
201,33250,"SS - IFO 925 W/S West End Ave, 1st SS N/O W 105th St, 12""",992843,231209,-73.9689626,40.80128704,New York,10025
202,33300,"SS - S/S W 125th St, BTW 7th & 8th Aves (IFO Lane Bryant Store), 48""",998315,234102,-73.94919201,40.80922051,New York,10027
203,33450,"SS - IFO 135 N/S W 112th St, 2nd SS W/O St Nicholas Ave, 12""",997082,230895,-73.95365219,40.80042005,New York,10026
204,33550,"SS - IFO 115 N/S E 67th St, 2nd SS W/O Lexington Ave, 12""",993886,218935,-73.96521295,40.7675971,New York,10065
205,33600,"SS - W/S 2nd Ave, BTW E 42nd St & 43rd Sts, IFO 801 2nd Ave, 48""",991963,212570,-73.9721625,40.7501287,New York,10017
206,33700,"SS - IFO 69 W/S St Nicholas Ave, BTW W 113th & W 114th Sts, 48""",997356,231253,-73.95266183,40.80140226,New York,10026
207,33850,"SS - IFO 155 N/S E 85th St, 1st SS E/O Lexington Ave, 12""",996612,222939,-73.95536442,40.77858364,New York,10028
208,33950,"SS - N/S E 104th St, 2nd SS E/O 3rd Ave, 12""",999690,227009,-73.94424131,40.78974987,New York,10029
209,34050,"SS - IFO 611 N/S W 181st St, 1st SS W/O St Nicholas Ave, 12""",1002425,248841,-73.93430524,40.84966733,New York,10033
210,34150,"SS - N/S W 151st St, 2nd SS W/O Amsterdam Ave, IFO 529 151st St, 12""",999120,241564,-73.94626752,40.82970027,New York,10031
211,34200,"SS - S/S W 97th St, BTW Columbus & Amsterdam Ave, 36""",993173,228471,-73.9677743,40.79377165,New York,10025
212,34300,"SS - S/S W 40th St, BTW Broadway & 7th Ave, 48""",987649,214195,-73.98773162,40.75459162,New York,10018
213,34350,"SS - E/S 6th Ave, BTW W 37th & W 38th Sts, IFO 1016 6th Ave, 20""",988136,213267,-73.98597438,40.75204429,New York,10018
214,34550,"SS - IFO 133 N/S 128th St, 2nd SS W/O Lenox Ave, 12""",999264,234562,-73.94576284,40.81048152,New York,10027
215,34650,"SS - IFO 1066 E/S St Nicholas Ave, BTW W 163rd & W 164th Sts, 12""",1000866,244313,-73.93995157,40.83724237,New York,10032
216,34700,"SS - S/S W 165th St, BTW Edgecombe & Amsterdam Aves, 30""",1001663,244320,-73.93707128,40.83726005,New York,10032
217,34850,"SS - OPP 40 N/S W 53rd St, 2nd SS E/O 6th Ave, IFO MOMA 12""",990391,216650,-73.97783239,40.76132849,New York,10019
218,34950,"SS - IFO 686 S/S Academy St, 2nd SS W/O Broadway St, 12""",1004822,255197,-73.92562162,40.86710738,New York,10034
219,35000,"SS - S/S W 93rd St, btw Columbus Ave & Central Park West, 30""",993412,227105,-73.96691301,40.7900221,New York,10025
220,35050,"SS - IFO 565 N/S W 125th St, 1st SS W/O Old Broadway, 20""",995934,236325,-73.95778919,40.81532549,New York,10027
221,35100,"SS - E/S Central Park West, BTW W 93rd & W 94th Sts, 30""",993736,227094,-73.96574295,40.78999157,New York,10025
222,35150,"SS - IFO 21 E/S Bennett Ave, 2nd SS N/O W 181st St, 20""",1001925,249470,-73.93611087,40.85139477,New York,10033
223,35200,"SS - S/S W 65th St, BTW Broadway & Central Park West, 36""",989646,220635,-73.98051847,40.77226677,New York,10023
224,35350,"SS - IFO 541 N/S W 207th (Emerson) St, 1st SS E/O Sherman Ave, 12""",1006457,254634,-73.91971212,40.86555816,New York,10034
225,35450,"SS - IFO 500 N/S E 76th St, 2nd SS E/O York Ave, 12""",997934,219442,-73.95059819,40.76898335,New York,10021
226,35550,"SS - N/S Washington Square S, 1st SS W/O Washington Square E (OPP 70 Washington Square E), 12""",985154,205130,-73.99673831,40.72971106,New York,10012
227,35650,"SS - N/S W 25th St, 2nd SS W/O Broadway,  OPP 28 W 25th St 12""",986871,210227,-73.99054129,40.74370072,New York,10010
228,35750,"SS - N/S W 83rd St, 2nd SS W/O Central Park West, 12""",992124,224820,-73.97156708,40.78375163,New York,10024
229,35800,"SS - N/S E 85th St, BTW 5th & Madison Aves,  OPP 16 E 85th St, 36""",995459,223581,-73.9595265,40.7803473,New York,10028
230,35900,"SS - IFO 168 W/S 5th Ave, BTW E 21st & E 22nd Sts, 48""",986915,209114,-73.99038294,40.7406458,New York,10010
231,36000,"SS - S/S E 68th St, BTW 5th & Madison Aves, 36""",993046,219645,-73.96824452,40.76954675,New York,10065
232,36100,"SS - IFO 1212 E/S 6th Ave, BTW W 47th & W 48th Sts, 20""",989398,215557,-73.98141773,40.75832912,New York,10036
233,36200,"SS - W/S 5th Ave, BTW W 8th St & Washington Square N, 48""",985124,205874,-73.99684646,40.73175316,New York,10011
234,36350,"SS - IFO 165 N/S E 112th St, 1st SS E/O Lexington Ave, 12""",1000097,229237,-73.94276625,40.7958644,New York,10029
235,36500,"SS - E/S Broadway, BTW Howard & Grand Sts, 30""",983915,201605,-74.00120852,40.72003583,New York,10013
236,36600,"SS - IFO 87 E/S Bowery, BTW Hester & Canal Sts, 36""",985508,200478,-73.99546193,40.7169424,New York,10013
237,36700,"SS - S/S South St, BTW Rutgers Slip & Jefferson Sts, 30""",987453,197979,-73.98844679,40.71008276,New York,10002
238,36950,SS - W/S Main St. Roosevelt Island (north of bridge) - 2nd SS N/O FDNY SOC circle,999939,219046,-73.94336069,40.7678931,New York,10044
239,37300,"SS - IFO 3401 W/S Broadway, BTW W 138th & W 139th Sts, 36""",997037,238820,-73.95379963,40.82217204,New York,10031
240,37450,"SS -OPP 532 N/S W 111st St, 2nd SS W/O Amsterdam Ave, 12""",993850,232387,-73.96532369,40.80451929,New York,10025
241,37950,"SS - IFO 325 N/S E 12th St, 2nd SS E/O 2nd Ave, 12""",988485,205450,-73.98471966,40.73058842,New York,10003
242,38150,"SS - IFO 121 N/S W 72nd St, 2nd SS W/O Columbus Ave, 12""",989901,222686,-73.9795961,40.77789606,New York,10023
243,38250,"SS - IFO 309 N/S E 87th St, 2nd SS W/O 1st Ave, 12""",997994,222826,-73.95037466,40.77827145,New York,10128
244,38300,"SS - E/S Amsterdam Ave, BTW W 179th & W 180th Sts (IFO DEP Pump Station), 36""",1003227,247967,-73.93140884,40.84726677,New York,10033
245,38650,"SS - OPP 238 N/S W 112th St, 2nd SS E/O 8th Ave (Fredrick Douglass), 12""",996500,231218,-73.95575372,40.80130743,New York,10026
246,39200,"SS - E/S Amsterdam Ave, BTW W 61st & W 62nd Sts, 48""",988030,220500,-73.98635289,40.77189707,New York,10023
247,39400,"SS - S/S W 62nd St, BTW Columbus Ave & Broadway, 48""",989043,220395,-73.98269569,40.77160838,New York,10023
248,39550,"SS - W/S Park Ave, 1st SS S/O E 95th St, 12""",997170,225580,-73.95334457,40.78583169,New York,10128
249,39550,"SS - W/S Park Ave, 1st SS S/O E 95th St, 12""",997172,225580,-73.95333735,40.78583169,New York,10128
250,39650,"SS - IFO 229 N/S E 49th St, 2nd SS W/O 2nd Ave, 12""",992565,214253,-73.9699877,40.75474756,New York,10017
251,39750,"SS - IFO 321 N/S E 71st St, 2nd SS W/O 1st Ave, 12""",995942,218935,-73.95779056,40.76759462,New York,10021
252,39800,"SS - W/S Broadway, BTW W 76th & W 77th Sts, 36""",989480,224221,-73.981115,40.78210949,New York,10024
253,39950,"SS - IFO 601 W/S West End Ave, 1st SS N/O W 89th St, 12""",990776,227477,-73.97643211,40.79104548,New York,10024
254,3SC26,"Shaft 26 of New Croton Aqueduct, 179th St Pumping Station.",1003134,247853,-73.9317453,40.84695408,New York,10033
255,4ISL5,"SS - Rikers Island, traffic island OPP James A. Thomas Ctr, 14-14 Hazen St",1015316,229741,-73.88779833,40.79720735,East Elmhurst,11370
256,40150,"SS - N/S 27th Ave, 1st SS E/O 2nd St, IFO 2-07 27th Ave, 12""",1002251,221752,-73.93500683,40.77531596,Astoria,11102
257,40200,"SS - S/S 19th Ave, BTW 41st & Steinway Sts, IFO 40-14 19th Ave, 60""",1012206,222705,-73.89906005,40.77790581,Astoria,11105
258,40250,"SS - IFO 22-26 W/S Steinway St, 2nd SS S/O Ditmars Blvd, 12""",1010037,220644,-73.9068995,40.7722555,Astoria,11105
259,40300,"SS - IFO 12 - 23 SE/S Jackson Ave, BTW 48th & 49th Aves, 72""",998105,210271,-73.94999975,40.74381103,Long Island City,11101
260,40350,"SS - N/S 41st Ave, 2nd SS W/O 21st St, 12""",1000003,214134,-73.94314115,40.75441081,Long Island City,11101
261,40450,"SS - OPP 33-02 N/S 48th Ave, 1st SS E/O 33rd St, 12""",1003047,209194,-73.93216795,40.74084581,Long Island City,11101
262,40550,"SS - W/S 61st (Bush) St, 1st SS S/O 47th Ave, 12""",1011000,208696,-73.90347026,40.73945844,Woodside,11377
263,40600,"SS - E/S 89th St, BTW Northern Blvd & 32nd Ave, 72""",1017800,215038,-73.87890024,40.75684244,East Elmhurst,11369
264,40650,"SS - IFO 30-12 W/S 94th St, 1st SS S/O 30th Ave, 12""",1018876,216530,-73.87500871,40.76093345,East Elmhurst,11369
265,40750,"SS - N/S Northern Blvd, 1st SS W/O 78th St, 12""",1014894,214445,-73.88939223,40.75522536,Jackson Heights,11372
266,40800,"SS - E/S 62nd St, BTW 37th Ave & Broadway, 48""",1011829,212286,-73.90046402,40.74930954,Woodside,11377
267,40850,"SS - IFO 4205 E/S 77th St, 1st SS S/O Woodside Ave, 12""",1015318,210104,-73.88788188,40.74330894,Elmhurst,11373
268,40950,"SS - W/S 94th St, 2nd SS S/O 41st Rd , Case St, 12""",1019803,210877,-73.87169236,40.74541373,Elmhurst,11373
269,41050,"SS - IFO 86-31 W/S 57th Ave, 2nd SS S/O Seabury Ave, 12""",1018708,206370,-73.8756672,40.73304748,Elmhurst,11373
270,41100,"SS - IFO 94-03 S/S Alstyne Ave, BTW Junction Blvd & 94th St, 48""",1020261,209842,-73.87004502,40.74257107,Elmhurst,11373
271,41150,"SS - OPP 110-08 W/S Colonial Ave, 2nd SS S/O Horace Harding Expwy, 12""",1026226,207866,-73.84853116,40.73712114,Forest Hills,11375
272,41250,"SS - SW/S LIE (service Rd), 1st SS E/O 71st St, 12""",1014728,203714,-73.89004002,40.72577203,Maspeth,11378
273,41300,"SS - S/S Cypress Ave, BTW Dekalb Ave & Stockholm St, 60""",1007301,196633,-73.91685973,40.70635886,Ridgewood,11385
274,41350,"SS - W/S Menahan St, 1st SS N/O Onderdonk Ave, 12""",1009308,196373,-73.90962186,40.70563976,Ridgewood,11385
275,41450,"SS - OPP 18-20 W/S Decatur St, 2nd SS S/O Forest Ave, 12""",1012510,193596,-73.89808469,40.69800791,Ridgewood,11385
276,41550,"SS - IFO 98-05 N/S 63rd Rd, 1st SS E/O 98th St, 12""",1023300,205981,-73.85910044,40.73196069,Rego Park,11374
277,41600,"SS - IFO 93-29 N/S Queens Blvd, BTW 62nd Dr & 62nd Ave, 72""",1021543,205810,-73.86544096,40.73149892,Rego Park,11374
278,41650,"SS - IFO 106-15 N/S Queens Blvd (service Rd), 2nd SS E/O Yellowstone Blvd, 20""",1026792,202666,-73.84652165,40.72284573,Forest Hills,11375
279,41750,"SS - OPP 104-41 SW/S Ditmars Blvd, BTW 24th Rd & 25th Ave, 12""",1021435,218787,-73.86575888,40.76711793,East Elmhurst,11369
280,41850,"SS - IFO 67-02 W/S Bell Blvd, 1st SS S/O 67th Ave, 12""",1050755,210470,-73.75999378,40.74411802,Oakland Gardens,11364
281,41900,"SS - W/S Fresh Meadow La, Corner N/O Booth Memorial Ave, 20""",1040557,209716,-73.79680295,40.74211929,Fresh Meadows,11365
282,41950,"SS - IFO 170-05 N/S 45th Ave, 1st SS E/O 170th St, 12""",1040549,214712,-73.79678999,40.75583207,Flushing,11358
283,42100,"SS - S/S Metropolitan Ave, 1st SS E/O 80th St, 48""",1019954,199151,-73.87120964,40.71322815,Middle Village,11379
284,42150,"SS - IFO 68-78 W/S 76th St, 1st N/O 69th Rd, 12""",1018772,197537,-73.87548158,40.7088028,Ridgewood,11385
285,42300,"SS - S/S 48th Ave, BTW 42nd & 43rd Sts, 72""",1005648,208750,-73.92278324,40.73962123,Sunnyside,11104
286,42350,"SS - IFO 41-18 W/S 39th St, 2nd SS S/O Skillman Ave, 12""",1004860,211464,-73.9256185,40.74707235,Sunnyside,11104
287,42700,"SS - OPP 64-65 W/S 210th St, N/O 67th Ave, 48""",1049282,209900,-73.76531509,40.74256447,Oakland Gardens,11364
288,42750,"SS - IFO 64-50A W/S 188th St, 2nd SS S/O 64th Ave, 20""",1043933,207580,-73.78463886,40.73623438,Fresh Meadows,11365
289,42850,"SS - IFO 82-28 W/S Parsons Blvd, BTW Goethals Ave & Village Rd",1037347,200782,-73.80845745,40.71761756,Jamaica,11432
290,42950,"SS - IFO 80-56 W/S 193rd St, 1st SS N/O 81st Ave, 12""",1046079,204823,-73.77692056,40.72865238,Fresh Meadows,11366
291,43050,"SS - S/S Park Lane S, 1st SS W/O 102nd St, 20""",1026611,193874,-73.84722995,40.69871469,Woodhaven,11421
292,43150,"SS - W/S 88th St, 2nd SS S/O 149th Ave, 12""",1026601,183111,-73.84733367,40.6691728,Howard Beach,11414
293,43250,"SS - IFO 87-48 W/S 78th St, 1st SS N/O 88th Ave, 12""",1022120,190652,-73.86344431,40.68989141,Woodhaven,11421
294,43550,"SS - W/S 125th St, 1st SS S/O 15th Ave, 20""",1027699,225142,-73.84310424,40.78453214,College Point,11356
295,43600,"SS - E/S Union St, BTW Northern Blvd & 35th Ave, 72""",1031944,218059,-73.82782572,40.76506931,Flushing,11354
296,43650,"SS - E/S Whitestone Expy (service Rd), 2nd SS S/O Downing St, 12""",1029519,219268,-73.83657175,40.76840045,Flushing,11354
297,43750,"SS - N/S 20th Ave, 2nd SS W/O Whitestone Expy, 12""",1031507,224135,-73.82936055,40.78174866,Whitestone,11357
298,43900,"SS - N/S 39th Ave, BTW 215th Pl & 216th St, IFO 215-37 39th Ave 24""",1048519,218452,-73.76798682,40.76604303,Bayside,11361
299,43950,"SS - N/S 26th Ave, BTW 210th Pl & 211st St (IFO Sony Theatres), 12""",1045509,222777,-73.77881355,40.77793536,Bayside,11360
300,44150,"SS - IFO 20-44 W/S 21st St, 2nd SS N/O 21st Ave, 20""",1008141,224609,-73.91373065,40.78314371,Astoria,11105
301,44250,"SS - IFO 50-33 N/S Broadway, 2nd SS E/O 49th St, 12""",1009146,214314,-73.91013978,40.75488385,Woodside,11377
302,44350,"SS - IFO 21-55 N/S 34th Ave, 1st SS W/O 24th St, 12""",1002964,216964,-73.93244585,40.76217266,Astoria,11106
303,44450,"SS - IFO 223-03 N/S Manor Rd, 2nd SS W/O 229th St, 12""",1055329,206333,-73.74353073,40.73272745,Queens Village,11427
304,44550,"SS - N/S 17th Ave, 1st SS E/O 201st St, 12""",1041759,224449,-73.79233922,40.78254974,Bayside,11360
305,44700,"SS - N/S Jewel Ave, BTW 172nd & 173rd Sts, 60""",1040470,205827,-73.79714941,40.73144553,Fresh Meadows,11365
306,44750,"SS - IFO 67-02 W/S Parsons Blvd, 2nd SS N/O Jewel Ave, 12""",1036698,206954,-73.81075055,40.73456203,Fresh Meadows,11365
307,44950,"SS - W/S Selfridge St, 1st SS N/O Olcott St, 12""",1023963,199221,-73.85674811,40.7134032,Forest Hills,11375
308,45000,"SS - W/S Douglaston Pkwy, BTW 67th & 68th Aves, 48""",1056313,213038,-73.73990842,40.75112296,Little Neck,11362
309,45050,"SS - IFO 253-38 S/S 61st Ave, 1st SS W/O 255th St, 20""",1060423,215516,-73.72504653,40.75788995,Little Neck,11362
310,45250,"SS - E/S Beach 58th St, 2nd SS N/O Beach Channel Dr, 12""",1043088,156447,-73.78813422,40.59589177,Arverne,11692
311,45650,"SS - IFO 107-02 W/S 109th St, 1st SS S/O 107th Ave, 12""",1030884,187685,-73.83186275,40.68170585,South Richmond Hill,11419
312,45700,"SS - E/S Cross Bay Blvd, BTW 156th Ave & Belt Pkwy, 48""",1028340,181542,-73.84107522,40.66485776,Howard Beach,11414
313,45750,"SS - N/S 161st Ave, 2nd SS W/O 83rd St, 12""",1026111,177745,-73.84913332,40.65444667,Howard Beach,11414
314,45850,"SS - N/S Sutter Ave, 1st SS E/O 91st St,  IFO 91-01 Sutter Ave, 12""",1026984,185810,-73.84593592,40.6765791,Ozone Park,11417
315,46100,"SS - IFO 691 S/S Empire Ave, BTW Virginia St & Harris St, 12"" (branch from 48"" into regulator)",1055532,160561,-73.74328228,40.60709247,Far Rockaway,11691
316,46150,"SS - IFO 20-23 S/S Seagirt Blvd, 2nd SS W/O Beach 20th St, 12""",1052304,156146,-73.75495214,40.59499961,Far Rockaway,11691
317,46250,"SS - S/S Beach Channel Dr, 2nd SS E/O Beach 126th St, 12""",1026511,151266,-73.84785748,40.58176553,Rockaway Park,11694
318,46350,"SS - S/S Astoria Blvd, 1st SS W/O 110th St, 12""",1022904,216238,-73.86047033,40.76011529,East Elmhurst,11369
319,46450,"SS - IFO 150-03 N/S Northern Blvd, 1st SS E/O 150th St, 12""",1035671,218150,-73.81437067,40.76529819,Flushing,11354
320,46850,"SS - IFO 63-01 NW/S Eliot Ave, BTW 63rd & 64th Sts, 12""",1012186,200020,-73.89922649,40.71564129,Maspeth,11378
321,46950,"SS - IFO 118-40 S/S Metropolitan Ave, 2nd SS E/O 118th St IFO 118-18",1030452,196724,-73.83335831,40.70651803,Kew Gardens,11415
322,47150,"SS - IFO 147-19 N/S 7th Ave, 2nd SS W/O 149th St, 12""",1033893,228531,-73.82071252,40.79380139,Whitestone,11357
323,47500,"SS - IFO 20-10 W/S Cross Bay Blvd, BTW W 20th & W22nd Rd, 36""",1033971,157361,-73.82095618,40.59845634,Far Rockaway,11693
324,47550,"SS - E/S Beach 105th St, 2nd SS N/O Shore Front Pkwy, 12""",1032730,151392,-73.8254678,40.58207954,Rockaway Park,11694
325,47650,"SS - N/S Rockaway Point Blvd, 2nd SS W/O Beach 199th St, 20"" (end of divided h'way)",1009613,143617,-73.90872008,40.56083498,Breezy Point,11697
326,47750,"SS - IFO 80 - 29 E/S Little Neck Pkwy, 2nd SS N/O 81st Ave, 20""",1062706,209940,-73.71687094,40.74256536,Glen Oaks,11004
327,47850,"SS - IFO 246-35 N/S Van Zandt Ave, 1st SS W/O 248th St, 12""",1057118,217216,-73.73695773,40.76258385,Little Neck,11362
328,48600,"SS - W/S Rockaway Blvd, BTW S Conduit Ave & 157th St, 48""",1045300,182156,-73.77993664,40.66644235,Jamaica,11434
329,48700,"SS - IFO 160-05 N/S Cross Island Pkwy (service Rd), BTW 160th & 161st Sts, 20""",1039015,225892,-73.80223581,40.78652781,Whitestone,11357
330,49200,"SS - S/S Jewel Ave, BTW Main St & 141st Sts, 72""",1033124,205328,-73.82365848,40.73011954,Flushing,11367
331,50050,"SS - N/S Hylan Blvd, 2nd SS W/O Edgewater St, 12""",966574,163485,-74.06366685,40.61538731,Staten Island,10305
332,50200,"SS - IFO 93 N/S Austin Place, BTW Victory Blvd & Ward Ave, 84""",960455,169298,-74.08572724,40.63132845,Staten Island,10304
333,50250,"SS - IFO 937 N/S Victory Blvd, 2nd SS E/O Highland Ave, 20""",957294,165843,-74.09710169,40.62183616,Staten Island,10301
334,50300,"SS - W/S Clove Rd, 1st S/O of Genesee St, SI, 72"" (formerly site 00023)",955759,163383,-74.10262073,40.61507917,Staten Island,10301
335,50600,"SS - N/S Victory Blvd, BTW Pike St & W/O Westervelt Ave, IFO 199 Victory Blvd, 20""",961300,171090,-74.08268901,40.63624934,Staten Island,10301
336,50650,"SS - E/S York Ave, 1st SS N/O Pauw St, 8""",959871,172693,-74.0878435,40.64064541,Staten Island,10301
337,50750,"SS - E/S Woodhull Ave, 1st SS S/O Albourne Ave, 8""",929606,132752,-74.19657248,40.53088059,Staten Island,10312
338,50850,"SS - IFO 512 W/S Arlene St,1st SS N/O Dawson Ct, 12""",938156,159775,-74.16599961,40.60510188,Staten Island,10314
339,51050,"SS - IFO 163 E/S Tysens La, 2nd SS N/O Coverly St, 12""",948843,147129,-74.12744602,40.57044031,Staten Island,10306
340,51100,"SS - IFO 1759 NW/S Hylan Blvd, BTW Seaview & Liberty Aves, 48""",958541,152868,-74.09256033,40.58622615,Staten Island,10305
341,51150,"SS - IFO 650 S/S Tysens La, 2nd SS E/O Falcon Ave, 12""",952718,144073,-74.11348388,40.56206682,Staten Island,10306
342,51250,"SS - N/S Clarke Ave, 2nd SS W/O Amber St, 8""",945963,145822,-74.13780504,40.56684089,Staten Island,10306
343,51350,"SS - W/S Clove Rd, 1st SS S/O Tyler Ave (also 1st S/O Broadway), 12""",952915,166107,-74.11287707,40.62254637,Staten Island,10310
344,51450,"SS - IFO 119 E/S Justin Ave, BTW Hooper & O'Gorman Aves, 12""",946956,141680,-74.13420814,40.55547614,Staten Island,10306
345,51550,"SS - W/S Huguenot Ave, 1st SS S/O Sinclair Ave, 12""",929600,136603,-74.19662516,40.5414508,Staten Island,10312
346,51850,"SS - IFO 67 N/S Hill St, 2nd SS W/O Tompkins Ave, 12""",961818,165626,-74.0808045,40.62125315,Staten Island,10304
347,51900,"SS - N/S Vanderbilt Ave, BTW Bay St & Tompkins Ave, 66""",963592,165738,-74.07441455,40.62156488,Staten Island,10304
348,51950,"SS - N/S Sobel Ct, 1st SS E/O Bowen St, 12""",961126,162906,-74.0832879,40.61378553,Staten Island,10304
349,52000,"SS - W/S Clove Rd, Corner of S/O Richmond Terrace, 24""",949042,171355,-74.12685601,40.63693647,Staten Island,10310
350,52050,"SS - IFO 218 W/S Nicholas Ave, 1st SS S/O Charles Ave, 12""",945148,170575,-74.14088172,40.6347792,Staten Island,10302
351,52150,"SS - N/S Goethals Rd N, BTW Domain & Cooke Sts, 12""",940112,164049,-74.15898336,40.61684307,Staten Island,10314
352,52350,"SS - OPP 133 W/S Giffords La, 1st SS N/O Dewey Ave, 12""",942056,141349,-74.15183943,40.55454565,Staten Island,10308
353,52450,"SS - OPP 526 N/S Travis Ave, 1st SS E/O Merrymount St, 12""",940364,154531,-74.15801383,40.59071939,Staten Island,10314
354,52550,"SS - IFO 43 N/S Dongan Hills Ave, 2nd SS N/O Jefferson St, 12""",956309,153545,-74.10059901,40.58807762,Staten Island,10304
355,53500,"SS - E/S Targee St, S/O Baltic Ave, IFO 935 Targee St, 48""",959018,160070,-74.09086988,40.60599555,Staten Island,10304
356,53550,"SS - IFO 130 W/S Lamport Blvd, 2nd SS S/O Kramer St, 8""",962638,156213,-74.07782057,40.59541844,Staten Island,10305
357,55450,"SS - W/S Seguine Ave, 1st SS S/O Kingsland St, 12""",929492,127613,-74.19694101,40.51677432,Staten Island,10309
358,56000,"SS - N/S Hylan Blvd, opposite Holten Ave, 24""",930020,128865,-74.19505205,40.52021406,Staten Island,10309
359,56200,"SS - IFO 855 E/S Bloomingdale Rd, BTW Wirt & Candon Aves, 20""",923133,138620,-74.21991089,40.54694487,Staten Island,10309
360,56300,"SS - E/S Richmond Ave, 1st SS S/O Vedder Ave, 20""",942510,165902,-74.15035733,40.62194078,Staten Island,10314
361,56400,"SS - IFO 328 S/S Henderson Ave, BTW Westbury & Brentwood Aves, 20""",955493,172174,-74.10361628,40.63920774,Staten Island,10301
362,57200,"SS - W/S Richmond Ave, BTW Genesee & Scranton Aves, 48""",937502,140778,-74.16822349,40.55295553,Staten Island,10312
363,57750,"SS - IFO 264 W/S Lockman Ave, 2nd SS S/O Brabant St, 12""",939334,169106,-74.16181933,40.63071954,Staten Island,10303
364,58150,"SS - IFO 3262 W/S Richmond Ave, 1st SS N/O Gurley Ave, 12""",937093,143243,-74.16971246,40.5597193,Staten Island,10312
365,58250,"SS - IFO 578 E/S Drumgoole Rd East, 2nd SS N/O Arden Ave, 12""",934244,138616,-74.17993144,40.54700349,Staten Island,10312
366,58300,"SS - IFO 4299 NW/S Hylan Blvd, BTW W""ester & Thornycroft Aves, 48""",941916,134558,-74.15230075,40.535905,Staten Island,10312
367,58350,"SS - IFO 139 NE/S W""ester Ave, 2nd SS N/O Hylan Blvd, 8""",941317,134810,-74.1544573,40.53659381,Staten Island,10312
368,58400,"SS - IFO 408 W/S Woodrow Rd, BTW Arden Ave & Almond St, 20""",932029,139673,-74.18790958,40.54989198,Staten Island,10312
369,58600,"SS - N/S Hylan Blvd, 1st SS E/O Page Ave, 20""",920455,124432,-74.22941312,40.50798271,Staten Island,10309
370,58650,"SS - IFO 510 W/S Main St, 2nd SS S/O Hylan Blvd, 12""",916207,122378,-74.24466864,40.50231332,Staten Island,10307
371,58850,"SS - IFO 255 N/S Westwood Ave, 1st SS W/O Franklin Pl, 12""",951160,160296,-74.11917056,40.60659001,Staten Island,10314
372,58950,"SS - IFO 1085-15 N/S Castleton Ave, 2nd SS W/O Broadway, 12""",951286,170459,-74.11876641,40.63448577,Staten Island,10310
373,59050,"SS - IFO 989 N/S Forest Ave, 2nd SS W/O Clove Rd, 12""",950229,167908,-74.12256182,40.62747983,Staten Island,10310
374,59300,"SS - N/S Victory Blvd, 1st SS E/O Royal Oak Rd, 16""",952850,162957,-74.11309656,40.61390006,Staten Island,10301
375,59350,"SS - IFO 1824 S/S Victory Blvd, BTW Raymond Ave & Lester St, 12""",949781,162605,-74.12414868,40.61292248,Staten Island,10314
376,76150,"SS - IFO 160-20 S/S 85th Ave, BTW 160th & 161st Sts",1038620,198864,-73.80388072,40.71234539,Jamaica,11432
377,76300,"SS - N/S Hillside Ave & BTW 213 Pl & 214 St, 16""",1052705,203691,-73.75302555,40.72549653,Queens Village,11427
378,76450,"SS - OPP 139-50 N/S 85th Dr, 2nd SS E/O 139th St",1035350,197598,-73.81568559,40.70889002,Jamaica,11435
379,76550,"SS - N/S Baisley Blvd, W/O Smith St",1045511,186628,-73.77913542,40.67871549,Jamaica,11434
380,76650,"SS - IFO 87-60 W/S Chevy Chase St, 2nd S/O Henley Rd",1046472,200528,-73.77554233,40.71686092,Jamaica,11432
381,76750,"SS - IFO 160-10 S/S 89th Ave, 2nd E/O Parsons Blvd",1039534,196579,-73.80060259,40.70606796,Jamaica,11432
382,76850,"SS - IFO 111-46 W/S Farmers Blvd, 1st SS N/O Keeseville Ave",1049525,194731,-73.76458529,40.70092759,Saint Albans,11412
383,76950,"SS - IFO 90-20 W/S Francis Lewis Blvd, 1st SS S/O 90th Ave",1051654,200734,-73.75684698,40.71738838,Queens Village,11428
384,77050,"SS - IFO 93-40 E/S 217th St, S/O 94th Ave (IFO - Queens Village Library)",1056499,201702,-73.73935884,40.72000705,Queens Village,11428
385,77150,"SS - N/S Linden Blvd, 1st SS W/O 230th St",1058674,191704,-73.731623,40.692547,Cambria Heights,11411
386,77350,"SS - S/S Merrick Blvd, BTW 222nd St & 223rd St, IFO 222-18 Merrick Blvd",1054559,186410,-73.74651707,40.67804989,Springfield Gardens,11413
387,77550,"SS - IFO E/S 222nd St, 2nd S/O 91st Rd",1057716,204264,-73.73494053,40.72702907,Queens Village,11428
388,77650,"SS - OPP 110-52 E/S 207th St, 1st N/O 111th Ave",1053711,196581,-73.74946945,40.70597352,Queens Village,11429
389,77750,"SS - OPP 120-11 W/S 237th St, 1st SS S/O 120th Ave",1059645,189067,-73.72815105,40.68530086,Cambria Heights,11411
390,77850,"SS - N/S 90th Ave, BTW 179th & 180th Sts",1044675,198391,-73.78204392,40.71100784,Jamaica,11432
391,78050,"SS - OPP 110-38 E/S Springfield Blvd, 1st S/O 110th Rd",1056660,197103,-73.7388275,40.70738264,Queens Village,11429
392,78150,"SS - IFO 85-31 E/S 120th St, 2nd SS N/O Hillside Ave",1031161,195158,-73.830812,40.70221601,Kew Gardens,11415
393,78350,"SS - N/S Hillside Ave, BTW 189th & 190th Sts",1047324,200078,-73.77247308,40.71561975,Hollis,11423
394,78450,"SS - IFO 88-18 W/S Hollis Court Blvd, 2nd SS S/O Hillside Ave",1052428,202866,-73.75403327,40.72323425,Queens Village,11427
395,78550,"SS - W/S Springfield Blvd, 2nd SS S/O 116th Ave",1055425,193468,-73.74332036,40.69741548,Cambria Heights,11411
396,78650,"SS -N/S Linden Blvd, 1st SS E/O 191st St (IFO Queens Library)",1050830,191629,-73.75990948,40.69240363,Saint Albans,11412
397,78850,"SS - OPP 109-36 E/S 160th St, 2nd SS N/O 110th Ave",1042080,191964,-73.79145938,40.69338463,Jamaica,11433
398,79050,"SS - S/S South Conduit Ave, 1st SS E/O 221st St",1051749,181801,-73.75669398,40.66542114,Springfield Gardens,11413
399,79150,"SS - IFO 127-11 E/S Farmers Blvd (Keyspan), 2nd SS N/O Merrick Blvd",1050498,187418,-73.76114809,40.68084794,Jamaica,11434
400,79450,"SS - OPP 127-18 N/S Foch Blvd, 1st SS W/O 128th St",1036997,185580,-73.80983909,40.6758938,South Ozone Park,11420
401,79550,"SS - OPP 109-11 W/S 127th St, 2nd SS S/O 109th Ave",1035573,188405,-73.81495129,40.68365614,South Ozone Park,11420
